{
  "type": "FeatureCollection",
  "features": [
    {
      "type": "Feature",
      "properties": {
        "norad_id": 46430,
        "name": "COSMOS 2251 DEB",
        "group": "cosmos-2251-debris",
        "lat": -1.4875769109821113,
        "lon": -168.92920335377178,
        "alt_km": 750.1196836755844,
        "timestamp": "2025-12-05T04:52:15.688323+00:00",
        "meta_object_name": "COSMOS 2251 DEB",
        "meta_object_id": "1993-036BWU",
        "meta_epoch": "2025-12-03T09:00:26.936928",
        "meta_mean_motion": 14.51043928,
        "meta_eccentricity": 0.01031866,
        "meta_inclination": 73.9151,
        "meta_ra_of_asc_node": 14.104,
        "meta_arg_of_pericenter": 295.9829,
        "meta_mean_anomaly": 63.073,
        "meta_ephemeris_type": 0,
        "meta_classification_type": "U",
        "meta_norad_cat_id": 46430,
        "meta_element_set_no": 999,
        "meta_rev_at_epoch": 79547,
        "meta_bstar": 0.0030362826,
        "meta_mean_motion_dot": 0.00012872,
        "meta_mean_motion_ddot": 0,
        "tle_line1": "1 46430U 93036BWU 25337.37531177  .00012872  00000+0  30363-2 0  9998",
        "tle_line2": "2 46430  73.9151  14.1040 0103186 295.9829  63.0730 14.51043928795476"
      },
      "geometry": {
        "type": "Point",
        "coordinates": [
          -168.92920335377178,
          -1.4875769109821113
        ]
      }
    },
    {
      "type": "Feature",
      "properties": {
        "norad_id": 46432,
        "name": "COSMOS 2251 DEB",
        "group": "cosmos-2251-debris",
        "lat": 9.004739496118795,
        "lon": -59.454445097477254,
        "alt_km": 994.6384368199842,
        "timestamp": "2025-12-05T04:52:15.688332+00:00",
        "meta_object_name": "COSMOS 2251 DEB",
        "meta_object_id": "1993-036BWW",
        "meta_epoch": "2025-11-27T18:14:15.472320",
        "meta_mean_motion": 13.36590206,
        "meta_eccentricity": 0.04736106,
        "meta_inclination": 73.8709,
        "meta_ra_of_asc_node": 134.8972,
        "meta_arg_of_pericenter": 254.8276,
        "meta_mean_anomaly": 119.6249,
        "meta_ephemeris_type": 0,
        "meta_classification_type": "U",
        "meta_norad_cat_id": 46432,
        "meta_element_set_no": 999,
        "meta_rev_at_epoch": 66766,
        "meta_bstar": 0.00093134132,
        "meta_mean_motion_dot": 8.92e-06,
        "meta_mean_motion_ddot": 0,
        "tle_line1": "1 46432U 93036BWW 25331.75990130  .00000892  00000+0  93134-3 0  9999",
        "tle_line2": "2 46432  73.8709 134.8972 0473610 254.8276 119.6249 13.36590206667662"
      },
      "geometry": {
        "type": "Point",
        "coordinates": [
          -59.454445097477254,
          9.004739496118795
        ]
      }
    },
    {
      "type": "Feature",
      "properties": {
        "norad_id": 47045,
        "name": "COSMOS 2251 DEB",
        "group": "cosmos-2251-debris",
        "lat": -31.398927438528393,
        "lon": 152.9986674440824,
        "alt_km": 747.938799824854,
        "timestamp": "2025-12-05T04:52:15.688341+00:00",
        "meta_object_name": "COSMOS 2251 DEB",
        "meta_object_id": "1993-036BWZ",
        "meta_epoch": "2025-12-03T07:08:12.151968",
        "meta_mean_motion": 14.38891608,
        "meta_eccentricity": 0.0030084,
        "meta_inclination": 74.0566,
        "meta_ra_of_asc_node": 166.5562,
        "meta_arg_of_pericenter": 309.0569,
        "meta_mean_anomaly": 231.0781,
        "meta_ephemeris_type": 0,
        "meta_classification_type": "U",
        "meta_norad_cat_id": 47045,
        "meta_element_set_no": 999,
        "meta_rev_at_epoch": 7669,
        "meta_bstar": 0.00011844,
        "meta_mean_motion_dot": 3.4e-06,
        "meta_mean_motion_ddot": 0,
        "tle_line1": "1 47045U 93036BWZ 25337.29736287  .00000340  00000+0  11844-3 0  9992",
        "tle_line2": "2 47045  74.0566 166.5562 0030084 309.0569 231.0781 14.38891608 76696"
      },
      "geometry": {
        "type": "Point",
        "coordinates": [
          152.9986674440824,
          -31.398927438528393
        ]
      }
    },
    {
      "type": "Feature",
      "properties": {
        "norad_id": 47048,
        "name": "COSMOS 2251 DEB",
        "group": "cosmos-2251-debris",
        "lat": -66.67272372698112,
        "lon": -164.7663422931873,
        "alt_km": 723.188412093552,
        "timestamp": "2025-12-05T04:52:15.688350+00:00",
        "meta_object_name": "COSMOS 2251 DEB",
        "meta_object_id": "1993-036BXC",
        "meta_epoch": "2025-12-04T08:10:39.254304",
        "meta_mean_motion": 14.52183959,
        "meta_eccentricity": 0.0133528,
        "meta_inclination": 73.9778,
        "meta_ra_of_asc_node": 335.0779,
        "meta_arg_of_pericenter": 165.1593,
        "meta_mean_anomaly": 260.296,
        "meta_ephemeris_type": 0,
        "meta_classification_type": "U",
        "meta_norad_cat_id": 47048,
        "meta_element_set_no": 999,
        "meta_rev_at_epoch": 59568,
        "meta_bstar": 0.002635,
        "meta_mean_motion_dot": 0.00012001,
        "meta_mean_motion_ddot": 0,
        "tle_line1": "1 47048U 93036BXC 25338.34073211  .00012001  00000+0  26350-2 0  9997",
        "tle_line2": "2 47048  73.9778 335.0779 0133528 165.1593 260.2960 14.52183959595687"
      },
      "geometry": {
        "type": "Point",
        "coordinates": [
          -164.7663422931873,
          -66.67272372698112
        ]
      }
    },
    {
      "type": "Feature",
      "properties": {
        "norad_id": 47051,
        "name": "COSMOS 2251 DEB",
        "group": "cosmos-2251-debris",
        "lat": 6.052525315255881,
        "lon": -162.3614763903823,
        "alt_km": 862.759471169732,
        "timestamp": "2025-12-05T04:52:15.688359+00:00",
        "meta_object_name": "COSMOS 2251 DEB",
        "meta_object_id": "1993-036BXF",
        "meta_epoch": "2025-12-01T21:55:10.667424",
        "meta_mean_motion": 13.67061051,
        "meta_eccentricity": 0.03413205,
        "meta_inclination": 74.1012,
        "meta_ra_of_asc_node": 201.2803,
        "meta_arg_of_pericenter": 317.1785,
        "meta_mean_anomaly": 62.4119,
        "meta_ephemeris_type": 0,
        "meta_classification_type": "U",
        "meta_norad_cat_id": 47051,
        "meta_element_set_no": 999,
        "meta_rev_at_epoch": 59790,
        "meta_bstar": 0.0015947644,
        "meta_mean_motion_dot": 1.973e-05,
        "meta_mean_motion_ddot": 0,
        "tle_line1": "1 47051U 93036BXF 25335.91331791  .00001973  00000+0  15948-2 0  9998",
        "tle_line2": "2 47051  74.1012 201.2803 0341320 317.1785  62.4119 13.67061051597908"
      },
      "geometry": {
        "type": "Point",
        "coordinates": [
          -162.3614763903823,
          6.052525315255881
        ]
      }
    },
    {
      "type": "Feature",
      "properties": {
        "norad_id": 47052,
        "name": "COSMOS 2251 DEB",
        "group": "cosmos-2251-debris",
        "lat": 10.766144607122499,
        "lon": -2.736882158383387,
        "alt_km": 753.51700315781,
        "timestamp": "2025-12-05T04:52:15.688386+00:00",
        "meta_object_name": "COSMOS 2251 DEB",
        "meta_object_id": "1993-036BXG",
        "meta_epoch": "2025-11-29T08:23:30.956640",
        "meta_mean_motion": 14.35450474,
        "meta_eccentricity": 0.00577024,
        "meta_inclination": 74.0487,
        "meta_ra_of_asc_node": 4.8695,
        "meta_arg_of_pericenter": 82.9608,
        "meta_mean_anomaly": 293.3927,
        "meta_ephemeris_type": 0,
        "meta_classification_type": "U",
        "meta_norad_cat_id": 47052,
        "meta_element_set_no": 999,
        "meta_rev_at_epoch": 61597,
        "meta_bstar": 0.00022809202,
        "meta_mean_motion_dot": 6.42e-06,
        "meta_mean_motion_ddot": 0,
        "tle_line1": "1 47052U 93036BXG 25333.34966385  .00000642  00000+0  22809-3 0  9994",
        "tle_line2": "2 47052  74.0487   4.8695 0057702  82.9608 293.3927 14.35450474615976"
      },
      "geometry": {
        "type": "Point",
        "coordinates": [
          -2.736882158383387,
          10.766144607122499
        ]
      }
    },
    {
      "type": "Feature",
      "properties": {
        "norad_id": 47053,
        "name": "COSMOS 2251 DEB",
        "group": "cosmos-2251-debris",
        "lat": 34.45229745892562,
        "lon": -82.43709880916616,
        "alt_km": 833.5473788710988,
        "timestamp": "2025-12-05T04:52:15.688395+00:00",
        "meta_object_name": "COSMOS 2251 DEB",
        "meta_object_id": "1993-036BXH",
        "meta_epoch": "2025-12-02T02:37:04.787616",
        "meta_mean_motion": 13.59615746,
        "meta_eccentricity": 0.03758539,
        "meta_inclination": 74.0601,
        "meta_ra_of_asc_node": 271.2609,
        "meta_arg_of_pericenter": 87.2254,
        "meta_mean_anomaly": 294.2026,
        "meta_ephemeris_type": 0,
        "meta_classification_type": "U",
        "meta_norad_cat_id": 47053,
        "meta_element_set_no": 999,
        "meta_rev_at_epoch": 28744,
        "meta_bstar": 0.0013831144,
        "meta_mean_motion_dot": 1.616e-05,
        "meta_mean_motion_ddot": 0,
        "tle_line1": "1 47053U 93036BXH 25336.10908319  .00001616  00000+0  13831-2 0  9991",
        "tle_line2": "2 47053  74.0601 271.2609 0375853  87.2254 294.2026 13.59615746287442"
      },
      "geometry": {
        "type": "Point",
        "coordinates": [
          -82.43709880916616,
          34.45229745892562
        ]
      }
    }
  ]
}